METOP-C                 
1 43689U 18087A   21345.15178559 -.00000001  00000-0  19613-4 0  9996
2 43689  98.7129  42.9015 0002444 204.3547 155.7515 14.21490300160558
